{"type":"FeatureCollection","name":"BUCEA_OSM_Roads","source":"OpenStreetMap official Map API","license":"ODbL 1.0","campus_osm_way_id":546474045,"features":[{"type":"Feature","properties":{"osm_id":359504415,"highway":"footway"},"geometry":{"type":"LineString","coordinates":[[116.2810351,39.7481563],[116.2812912,39.7480345],[116.2813995,39.7479732],[116.2814944,39.7478966],[116.2815816,39.7477969],[116.2817049,39.7477979]]}},{"type":"Feature","properties":{"osm_id":359504430,"highway":"footway"},"geometry":{"type":"LineString","coordinates":[[116.2806575,39.7476451],[116.2807486,39.7476435]]}},{"type":"Feature","properties":{"osm_id":359504432,"highway":"service"},"geometry":{"type":"LineString","coordinates":[[116.2785502,39.7506478],[116.2785513,39.7501727],[116.2785518,39.7499388],[116.2785513,39.7496596],[116.27855,39.749017],[116.2785494,39.7487212],[116.2785491,39.7485825],[116.2785447,39.7481692]]}},{"type":"Feature","properties":{"osm_id":359504433,"highway":"service","surface":"asphalt"},"geometry":{"type":"LineString","coordinates":[[116.2824074,39.7481578],[116.2824083,39.7469361],[116.2824074,39.7463734],[116.2824067,39.745947],[116.2824059,39.7455005],[116.2824057,39.745356],[116.2824033,39.7448881],[116.2824012,39.7444843],[116.2823987,39.7439924]]}},{"type":"Feature","properties":{"osm_id":359504434,"highway":"footway"},"geometry":{"type":"LineString","coordinates":[[116.2805869,39.7479111],[116.2806282,39.7479428],[116.2807495,39.7479421]]}},{"type":"Feature","properties":{"osm_id":359504436,"highway":"service"},"geometry":{"type":"LineString","coordinates":[[116.2785518,39.7499388],[116.2787117,39.7499396],[116.2789021,39.7499406],[116.2803027,39.7499476],[116.2818432,39.7499418]]}},{"type":"Feature","properties":{"osm_id":359504439,"highway":"service"},"geometry":{"type":"LineString","coordinates":[[116.2818514,39.7508884],[116.2818418,39.750253],[116.2818432,39.7499418]]}},{"type":"Feature","properties":{"osm_id":359504442,"highway":"footway"},"geometry":{"type":"LineString","coordinates":[[116.2803851,39.7477874],[116.2805869,39.747789],[116.280749,39.7477903],[116.2815816,39.7477969]]}},{"type":"Feature","properties":{"osm_id":359504444,"highway":"service","name":"求实路","oneway":"yes"},"geometry":{"type":"LineString","coordinates":[[116.2803142,39.7469409],[116.2802088,39.7468167],[116.2802072,39.7462429],[116.2802063,39.7459091],[116.2802036,39.7449517],[116.2802008,39.7439813],[116.2802007,39.7439555],[116.2801988,39.743266],[116.2802016,39.7430878]]}},{"type":"Feature","properties":{"osm_id":359504445,"highway":"footway"},"geometry":{"type":"LineString","coordinates":[[116.2807482,39.747469],[116.2807486,39.7476435],[116.280749,39.7477903],[116.2807495,39.7479421],[116.2807518,39.748156]]}},{"type":"Feature","properties":{"osm_id":359504447,"highway":"footway"},"geometry":{"type":"LineString","coordinates":[[116.2806282,39.7479428],[116.2805869,39.7479698],[116.2805471,39.7479377],[116.2805869,39.7479111],[116.2805869,39.747789],[116.2805875,39.7477]]}},{"type":"Feature","properties":{"osm_id":359504448,"highway":"service"},"geometry":{"type":"LineString","coordinates":[[116.2804238,39.745909],[116.2802063,39.7459091],[116.2791564,39.7459093],[116.2777975,39.7459095],[116.2777548,39.7459095],[116.2772066,39.7459096],[116.2769251,39.7469237],[116.2765842,39.7481521],[116.2764595,39.7485789],[116.276419,39.7487174],[116.2763313,39.7490177],[116.2762311,39.7493605],[116.27622,39.7494308],[116.2762551,39.7494637],[116.2764225,39.7494637],[116.2764848,39.7494847],[116.2765274,39.7495415],[116.2765268,39.7496549],[116.2765253,39.7499462],[116.2765241,39.750182],[116.2765229,39.7504099],[116.2765861,39.7504757],[116.2766834,39.7505147],[116.2774978,39.7505728],[116.2785502,39.7506478],[116.2799498,39.7507404],[116.2801102,39.750751],[116.2802975,39.7507634],[116.280489,39.7507788],[116.2818514,39.7508884],[116.2829431,39.7509762]]}},{"type":"Feature","properties":{"osm_id":359504449,"highway":"service"},"geometry":{"type":"LineString","coordinates":[[116.283114,39.7469337],[116.2831025,39.7470155],[116.2830705,39.7481585],[116.2829927,39.7499376],[116.2829516,39.7508774],[116.2829431,39.7509762],[116.2829344,39.7510783],[116.2828888,39.7512535]]}},{"type":"Feature","properties":{"osm_id":359504450,"highway":"service","name":"求实路"},"geometry":{"type":"LineString","coordinates":[[116.2803142,39.7469409],[116.2803165,39.7470428],[116.2803154,39.7472706],[116.2803144,39.7474886],[116.2803113,39.7481555],[116.2803032,39.7498627],[116.2803027,39.7499476],[116.2802975,39.7507634]]}},{"type":"Feature","properties":{"osm_id":359504451,"highway":"service","name":"自强路"},"geometry":{"type":"LineString","coordinates":[[116.2765842,39.7481521],[116.2774959,39.7481612],[116.2781024,39.748166],[116.2785447,39.7481692],[116.2789524,39.7481696],[116.2794996,39.7481548],[116.2803113,39.7481555],[116.2807518,39.748156],[116.2810351,39.7481563],[116.281696,39.748157],[116.2818513,39.7481572],[116.2824074,39.7481578],[116.2830705,39.7481585]]}},{"type":"Feature","properties":{"osm_id":359504452,"highway":"service","name":"求实路","oneway":"yes"},"geometry":{"type":"LineString","coordinates":[[116.2804144,39.7430901],[116.280414,39.7432257],[116.2804168,39.743984],[116.2804193,39.7446611],[116.2804203,39.7449502],[116.2804212,39.7452071],[116.2804238,39.745909],[116.2804272,39.7468233],[116.2803142,39.7469409]]}},{"type":"Feature","properties":{"osm_id":359504455,"highway":"service","name":"明德路"},"geometry":{"type":"LineString","coordinates":[[116.2769251,39.7469237],[116.2774976,39.7469266],[116.2781731,39.74693],[116.2786623,39.7469325],[116.2788751,39.7469336],[116.2795087,39.7469368],[116.2803142,39.7469409],[116.2806095,39.7469424],[116.2807567,39.7469419],[116.2816169,39.7469389],[116.2817262,39.7469385],[116.2824083,39.7469361],[116.283114,39.7469337],[116.2833479,39.7469331],[116.2837746,39.7469292],[116.2843476,39.7469239]]}},{"type":"Feature","properties":{"osm_id":782078319,"highway":"service","oneway":"yes"},"geometry":{"type":"LineString","coordinates":[[116.2804144,39.7430901],[116.2806768,39.7430993],[116.2811328,39.7431],[116.2811602,39.7430982],[116.2812097,39.743095],[116.2812739,39.7430592],[116.2813118,39.7430166],[116.2813118,39.7429586],[116.281313,39.7426588],[116.2813133,39.7425664],[116.2813136,39.7424987]]}},{"type":"Feature","properties":{"osm_id":782078320,"highway":"service"},"geometry":{"type":"LineString","coordinates":[[116.2804144,39.7430901],[116.2802016,39.7430878],[116.2795465,39.7430622],[116.2783214,39.7430143],[116.2782159,39.7430102],[116.2781107,39.7430191],[116.2780406,39.7430401],[116.27799,39.743082],[116.2776891,39.7441812],[116.2776473,39.7443337],[116.2774626,39.7449942],[116.2772066,39.7459096]]}},{"type":"Feature","properties":{"osm_id":782078321,"highway":"service","oneway":"yes"},"geometry":{"type":"LineString","coordinates":[[116.2815132,39.7424981],[116.2815141,39.7425683],[116.2815152,39.7426565],[116.281519,39.7429586],[116.2815207,39.7430349],[116.2815405,39.7430718],[116.2815772,39.7430925],[116.2816575,39.7431015],[116.2822728,39.7430985],[116.2823585,39.7431254],[116.2824052,39.7431883],[116.2823987,39.7439924]]}},{"type":"Feature","properties":{"osm_id":782078323,"highway":"service","oneway":"yes"},"geometry":{"type":"LineString","coordinates":[[116.280489,39.7507788],[116.2804663,39.7510858],[116.2804576,39.7512423],[116.2804724,39.7512962],[116.2804677,39.7514139],[116.2804678,39.7515132]]}},{"type":"Feature","properties":{"osm_id":782078324,"highway":"service","oneway":"yes"},"geometry":{"type":"LineString","coordinates":[[116.2800512,39.751481],[116.280083,39.7513162],[116.2801062,39.7512581],[116.2801219,39.7510956],[116.2801102,39.750751]]}},{"type":"Feature","properties":{"osm_id":782078326,"highway":"service"},"geometry":{"type":"LineString","coordinates":[[116.2818432,39.7499418],[116.2829927,39.7499376]]}},{"type":"Feature","properties":{"osm_id":782078327,"highway":"service"},"geometry":{"type":"LineString","coordinates":[[116.2791564,39.7459093],[116.2791519,39.7450125],[116.2791673,39.7449875],[116.2791924,39.7449467],[116.2792734,39.7448948],[116.279818,39.7448948],[116.2799261,39.7449537],[116.2802036,39.7449517],[116.2804203,39.7449502]]}},{"type":"Feature","properties":{"osm_id":782078328,"highway":"service"},"geometry":{"type":"LineString","coordinates":[[116.2774626,39.7449942],[116.2777928,39.7449929],[116.2790609,39.7449879],[116.2791673,39.7449875]]}},{"type":"Feature","properties":{"osm_id":782078331,"highway":"footway"},"geometry":{"type":"LineString","coordinates":[[116.2795465,39.7430622],[116.2794056,39.743621],[116.2793561,39.7438174],[116.2791662,39.7445703],[116.2790609,39.7449879]]}},{"type":"Feature","properties":{"osm_id":782078338,"highway":"service"},"geometry":{"type":"LineString","coordinates":[[116.2817262,39.7469385],[116.2817205,39.7471701],[116.2817117,39.7475234],[116.2817049,39.7477979],[116.281696,39.748157]]}},{"type":"Feature","properties":{"osm_id":782083610,"highway":"footway"},"geometry":{"type":"LineString","coordinates":[[116.2787117,39.7499396],[116.2799498,39.7507404]]}},{"type":"Feature","properties":{"osm_id":782083613,"highway":"footway"},"geometry":{"type":"LineString","coordinates":[[116.2788751,39.7469336],[116.279064,39.7462458],[116.2791564,39.7459093]]}},{"type":"Feature","properties":{"osm_id":782083624,"highway":"service"},"geometry":{"type":"LineString","coordinates":[[116.2777928,39.7449929],[116.2777975,39.7459095]]}},{"type":"Feature","properties":{"osm_id":782872327,"highway":"service"},"geometry":{"type":"LineString","coordinates":[[116.2774978,39.7505728],[116.2774978,39.7501776],[116.2774978,39.7499426],[116.2774978,39.7496572],[116.2774977,39.7493685],[116.2774977,39.7491692],[116.2775066,39.7489674],[116.2774977,39.7487193],[116.2774977,39.7485807],[116.2774959,39.7481612],[116.2774976,39.7474989],[116.2774976,39.7469266]]}},{"type":"Feature","properties":{"osm_id":782872328,"highway":"service"},"geometry":{"type":"LineString","coordinates":[[116.27855,39.749017],[116.2775066,39.7489674],[116.2769349,39.7489704],[116.2763313,39.7490177]]}},{"type":"Feature","properties":{"osm_id":782872329,"highway":"service"},"geometry":{"type":"LineString","coordinates":[[116.2785513,39.7496596],[116.2781069,39.7496586],[116.2774978,39.7496572],[116.2765268,39.7496549]]}},{"type":"Feature","properties":{"osm_id":782872330,"highway":"footway"},"geometry":{"type":"LineString","coordinates":[[116.2785518,39.7499388],[116.2780455,39.7499406],[116.2774978,39.7499426],[116.2770934,39.7499441],[116.2765253,39.7499462]]}},{"type":"Feature","properties":{"osm_id":782872331,"highway":"footway"},"geometry":{"type":"LineString","coordinates":[[116.2785513,39.7501727],[116.2780455,39.750175],[116.2774978,39.7501776],[116.2770988,39.7501794],[116.2765241,39.750182]]}},{"type":"Feature","properties":{"osm_id":782872332,"highway":"footway"},"geometry":{"type":"LineString","coordinates":[[116.2785494,39.7487212],[116.2778847,39.7487207],[116.2774977,39.7487193],[116.2770869,39.7487186],[116.276419,39.7487174]]}},{"type":"Feature","properties":{"osm_id":782872333,"highway":"footway"},"geometry":{"type":"LineString","coordinates":[[116.2785491,39.7485825],[116.2778859,39.7485814],[116.2774977,39.7485807],[116.277098,39.74858],[116.2764595,39.7485789]]}},{"type":"Feature","properties":{"osm_id":782872334,"highway":"footway"},"geometry":{"type":"LineString","coordinates":[[116.2774977,39.7491692],[116.2769388,39.7491486],[116.2769349,39.7489704]]}},{"type":"Feature","properties":{"osm_id":782872335,"highway":"footway"},"geometry":{"type":"LineString","coordinates":[[116.2780455,39.750175],[116.2780455,39.7499406]]}},{"type":"Feature","properties":{"osm_id":782872336,"highway":"footway"},"geometry":{"type":"LineString","coordinates":[[116.2770988,39.7501794],[116.2770934,39.7499441]]}},{"type":"Feature","properties":{"osm_id":782872337,"highway":"footway"},"geometry":{"type":"LineString","coordinates":[[116.2817117,39.7475234],[116.280998,39.7473346]]}},{"type":"Feature","properties":{"osm_id":782872338,"highway":"footway"},"geometry":{"type":"LineString","coordinates":[[116.2807567,39.7469419],[116.2807587,39.7470007],[116.280761,39.7470706]]}},{"type":"Feature","properties":{"osm_id":782872339,"highway":"footway"},"geometry":{"type":"LineString","coordinates":[[116.2817205,39.7471701],[116.2809828,39.7471778]]}},{"type":"Feature","properties":{"osm_id":782872340,"highway":"footway"},"geometry":{"type":"LineString","coordinates":[[116.2803154,39.7472706],[116.2804937,39.7472706]]}},{"type":"Feature","properties":{"osm_id":782872345,"highway":"service"},"geometry":{"type":"LineString","coordinates":[[116.2816169,39.7469389],[116.2816141,39.7466972],[116.2816081,39.7461667],[116.2820439,39.7461648],[116.2821008,39.7461645],[116.2821708,39.7461443],[116.2822174,39.7460771],[116.2823107,39.74603],[116.2823748,39.7459941],[116.2824067,39.745947]]}},{"type":"Feature","properties":{"osm_id":782872346,"highway":"service","oneway":"yes"},"geometry":{"type":"LineString","coordinates":[[116.2824057,39.745356],[116.2843492,39.7453525]]}},{"type":"Feature","properties":{"osm_id":782872347,"highway":"service","oneway":"yes"},"geometry":{"type":"LineString","coordinates":[[116.2843498,39.7455044],[116.2837748,39.7455033],[116.2824059,39.7455005]]}},{"type":"Feature","properties":{"osm_id":782872348,"highway":"service"},"geometry":{"type":"LineString","coordinates":[[116.2837748,39.7455033],[116.2837747,39.7463656],[116.2837746,39.7469292]]}},{"type":"Feature","properties":{"osm_id":782872352,"highway":"footway","layer":"-1"},"geometry":{"type":"LineString","coordinates":[[116.2802072,39.7462429],[116.279064,39.7462458],[116.2781732,39.746248],[116.2781731,39.74693]]}},{"type":"Feature","properties":{"osm_id":782872353,"highway":"footway"},"geometry":{"type":"LineString","coordinates":[[116.2774976,39.7474989],[116.2780997,39.7474967],[116.2786579,39.7474947],[116.2795045,39.7474915],[116.2803144,39.7474886]]}},{"type":"Feature","properties":{"osm_id":782872354,"highway":"footway"},"geometry":{"type":"LineString","coordinates":[[116.2794996,39.7481548],[116.2795027,39.7477342],[116.2795045,39.7474915],[116.2795087,39.7469368]]}},{"type":"Feature","properties":{"osm_id":782872355,"highway":"footway"},"geometry":{"type":"LineString","coordinates":[[116.2781024,39.748166],[116.2781014,39.7477342],[116.2780997,39.7474967]]}},{"type":"Feature","properties":{"osm_id":782872356,"highway":"footway","layer":"-1"},"geometry":{"type":"LineString","coordinates":[[116.2786623,39.7469325],[116.2786579,39.7474947]]}},{"type":"Feature","properties":{"osm_id":782872361,"highway":"footway"},"geometry":{"type":"LineString","coordinates":[[116.2823987,39.7439924],[116.281648,39.7439892],[116.2814089,39.7439882],[116.2811533,39.7439871],[116.2804168,39.743984]]}},{"type":"Feature","properties":{"osm_id":782872362,"highway":"service"},"geometry":{"type":"LineString","coordinates":[[116.2804168,39.743984],[116.2802008,39.7439813]]}},{"type":"Feature","properties":{"osm_id":782900095,"highway":"footway","lit":"yes","surface":"paving_stones"},"geometry":{"type":"LineString","coordinates":[[116.2824033,39.7448881],[116.2819423,39.7448923]]}},{"type":"Feature","properties":{"osm_id":782900096,"highway":"footway"},"geometry":{"type":"LineString","coordinates":[[116.2804193,39.7446611],[116.2808803,39.744665]]}},{"type":"Feature","properties":{"osm_id":782901126,"highway":"footway","layer":"-1"},"geometry":{"type":"LineString","coordinates":[[116.2781732,39.746248],[116.2777601,39.7462489],[116.2777548,39.7459095]]}},{"type":"Feature","properties":{"osm_id":783219122,"highway":"footway"},"geometry":{"type":"LineString","coordinates":[[116.2807482,39.747469],[116.2808285,39.7474604],[116.2809015,39.747433],[116.2809599,39.7473897],[116.280998,39.7473346],[116.2810116,39.7472819],[116.2810064,39.7472283],[116.2809828,39.7471778],[116.2809435,39.7471347],[116.2808908,39.747101],[116.2808286,39.7470792],[116.280761,39.7470706],[116.2806788,39.7470788],[116.2806042,39.7471066],[116.2805448,39.747151],[116.2805067,39.7472076],[116.2804937,39.7472706],[116.2805064,39.7473313],[116.2805425,39.7473861],[116.2805986,39.7474299],[116.2806694,39.7474584],[116.2807482,39.747469]]}},{"type":"Feature","properties":{"osm_id":783219131,"highway":"footway","lit":"yes","surface":"sett"},"geometry":{"type":"LineString","coordinates":[[116.2819423,39.7448923],[116.2819443,39.7443203],[116.2814014,39.7443183],[116.2808876,39.7443165],[116.2808803,39.744665]]}},{"type":"Feature","properties":{"osm_id":783219133,"highway":"footway"},"geometry":{"type":"LineString","coordinates":[[116.2816575,39.7431015],[116.281648,39.7439892]]}},{"type":"Feature","properties":{"osm_id":783219134,"highway":"footway"},"geometry":{"type":"LineString","coordinates":[[116.2811602,39.7430982],[116.2811533,39.7439871]]}},{"type":"Feature","properties":{"osm_id":783219135,"highway":"footway"},"geometry":{"type":"LineString","coordinates":[[116.2808803,39.744665],[116.2808729,39.745115],[116.2808167,39.745208]]}},{"type":"Feature","properties":{"osm_id":783219136,"highway":"footway"},"geometry":{"type":"LineString","coordinates":[[116.2814089,39.7439882],[116.2814014,39.7443183]]}},{"type":"Feature","properties":{"osm_id":783226614,"highway":"footway","surface":"paving_stones"},"geometry":{"type":"LineString","coordinates":[[116.2808167,39.745208],[116.2809035,39.7452243],[116.2809852,39.7452142],[116.2810407,39.7451765],[116.2811126,39.7451589],[116.281191,39.7451539],[116.2812792,39.745164],[116.2813511,39.7451916],[116.2814099,39.7452318],[116.2814851,39.7452594],[116.2815701,39.7452594],[116.2816387,39.7452418],[116.2817302,39.7452016],[116.2818184,39.7451715],[116.2819309,39.7451585],[116.2820679,39.745201],[116.2821405,39.74524],[116.2821707,39.7453421]]}},{"type":"Feature","properties":{"osm_id":783226615,"highway":"footway","lit":"yes","surface":"paving_stones"},"geometry":{"type":"LineString","coordinates":[[116.2819309,39.7451585],[116.2819423,39.7448923]]}},{"type":"Feature","properties":{"osm_id":783226616,"highway":"footway"},"geometry":{"type":"LineString","coordinates":[[116.2808167,39.745208],[116.2807303,39.7452078],[116.2804212,39.7452071]]}},{"type":"Feature","properties":{"osm_id":783226617,"highway":"footway"},"geometry":{"type":"LineString","coordinates":[[116.28069,39.7455789],[116.2806803,39.7456893],[116.280646,39.7457363],[116.280624,39.7458322],[116.2806118,39.7459469],[116.2806314,39.7460165],[116.2807096,39.746056],[116.2807537,39.7461049],[116.2807442,39.7461352],[116.2807304,39.7461791],[116.2806937,39.7462171],[116.2806223,39.7462368],[116.2805747,39.746279],[116.2805509,39.7463452],[116.280582,39.7464128],[116.2807029,39.7465536],[116.2807322,39.7465787],[116.2808655,39.7466932],[116.2808372,39.7467152],[116.2806167,39.7468867]]}},{"type":"Feature","properties":{"osm_id":783226618,"highway":"footway"},"geometry":{"type":"LineString","coordinates":[[116.2807322,39.7465787],[116.2804715,39.7467785]]}},{"type":"Feature","properties":{"osm_id":783226619,"highway":"footway"},"geometry":{"type":"LineString","coordinates":[[116.2807303,39.7452078],[116.2806398,39.7453307]]}},{"type":"Feature","properties":{"osm_id":783226620,"highway":"footway"},"geometry":{"type":"LineString","coordinates":[[116.2808372,39.7467152],[116.280876,39.7467952],[116.2810132,39.7467801],[116.2811635,39.7467952],[116.281304,39.7467952],[116.2814184,39.7467625],[116.2815066,39.7467148],[116.2816141,39.7466972]]}},{"type":"Feature","properties":{"osm_id":783226621,"highway":"footway"},"geometry":{"type":"LineString","coordinates":[[116.280876,39.7467952],[116.2808923,39.7468354],[116.2808564,39.7468867]]}},{"type":"Feature","properties":{"osm_id":783226622,"highway":"footway","lit":"yes","surface":"paving_stones"},"geometry":{"type":"LineString","coordinates":[[116.282176,39.7455791],[116.2821836,39.7456517],[116.2822251,39.7456924],[116.2822667,39.745765],[116.2822931,39.745855],[116.2822629,39.7459276],[116.2821723,39.7460089],[116.2820741,39.7460437],[116.282059,39.7460786],[116.2820439,39.7461648]]}},{"type":"Feature","properties":{"osm_id":783226624,"highway":"footway"},"geometry":{"type":"LineString","coordinates":[[116.2807442,39.7461352],[116.2808033,39.7461294]]}},{"type":"Feature","properties":{"osm_id":783226626,"highway":"footway"},"geometry":{"type":"LineString","coordinates":[[116.2843461,39.7444804],[116.2824012,39.7444843]]}},{"type":"Feature","properties":{"osm_id":783226627,"highway":"footway"},"geometry":{"type":"LineString","coordinates":[[116.2824074,39.7463734],[116.2837747,39.7463656]]}},{"type":"Feature","properties":{"osm_id":783243226,"bridge":"yes","highway":"footway","layer":"1"},"geometry":{"type":"LineString","coordinates":[[116.2808033,39.7461294],[116.281079,39.7460986]]}},{"type":"Feature","properties":{"osm_id":783243228,"highway":"footway"},"geometry":{"type":"LineString","coordinates":[[116.281079,39.7460986],[116.2811429,39.7460962],[116.2812867,39.7461099]]}},{"type":"Feature","properties":{"osm_id":783243229,"highway":"footway"},"geometry":{"type":"LineString","coordinates":[[116.2811429,39.7460962],[116.2811863,39.7460156],[116.2811471,39.7459151]]}},{"type":"Feature","properties":{"osm_id":783244687,"highway":"footway"},"geometry":{"type":"LineString","coordinates":[[116.2791662,39.7445703],[116.2793566,39.7445318],[116.2794968,39.744451],[116.2796019,39.7443282],[116.2796034,39.7441728],[116.2796968,39.7441126],[116.2797371,39.7438993]]}},{"type":"Feature","properties":{"osm_id":783244688,"highway":"footway"},"geometry":{"type":"LineString","coordinates":[[116.2793561,39.7438174],[116.2797371,39.7438993],[116.2802007,39.7439555]]}},{"type":"Feature","properties":{"osm_id":783244689,"highway":"footway"},"geometry":{"type":"LineString","coordinates":[[116.2794056,39.743621],[116.2788063,39.7435133],[116.2785011,39.7435618],[116.2781682,39.7435444]]}},{"type":"Feature","properties":{"osm_id":783244690,"highway":"footway"},"geometry":{"type":"LineString","coordinates":[[116.2781682,39.7435444],[116.2783214,39.7430143]]}},{"type":"Feature","properties":{"osm_id":783244691,"highway":"footway"},"geometry":{"type":"LineString","coordinates":[[116.2781682,39.7435444],[116.2779728,39.7441265],[116.2778757,39.7444155]]}},{"type":"Feature","properties":{"osm_id":783244692,"highway":"footway"},"geometry":{"type":"LineString","coordinates":[[116.2776891,39.7441812],[116.2777547,39.744182],[116.2778278,39.7441432],[116.2778682,39.7441005],[116.2779186,39.7440986],[116.2779728,39.7441265]]}},{"type":"Feature","properties":{"osm_id":783244693,"highway":"footway"},"geometry":{"type":"LineString","coordinates":[[116.2843255,39.7440049],[116.28442,39.7439417],[116.2844414,39.7429998],[116.2824672,39.743008],[116.2823585,39.7431254]]}},{"type":"Feature","properties":{"osm_id":783244694,"highway":"footway"},"geometry":{"type":"LineString","coordinates":[[116.2805662,39.7476199],[116.2805529,39.7476303],[116.2805447,39.7476434],[116.2805423,39.7476579],[116.2805461,39.7476722],[116.2805557,39.7476848],[116.2805699,39.7476944],[116.2805875,39.7477],[116.2806073,39.7477009],[116.2806264,39.7476966],[116.2806425,39.7476877],[116.2806539,39.7476751],[116.280659,39.7476604],[116.2806575,39.7476451],[116.2806499,39.7476318],[116.2806372,39.747621],[116.2806206,39.7476138],[116.280602,39.7476112],[116.2805832,39.7476133],[116.2805662,39.7476199]]}},{"type":"Feature","properties":{"osm_id":838991320,"highway":"footway"},"geometry":{"type":"LineString","coordinates":[[116.2814501,39.7461249],[116.2816081,39.7461667]]}},{"type":"Feature","properties":{"osm_id":838991321,"bridge":"yes","highway":"footway","layer":"1"},"geometry":{"type":"LineString","coordinates":[[116.2812867,39.7461099],[116.2814501,39.7461249]]}},{"type":"Feature","properties":{"osm_id":926441761,"footway":"sidewalk","highway":"footway","name":"2号楼出口"},"geometry":{"type":"LineString","coordinates":[[116.2778859,39.7485051],[116.2778859,39.748511],[116.2778859,39.7485814]]}},{"type":"Feature","properties":{"osm_id":926441762,"highway":"living_street","name":"操场南左入口"},"geometry":{"type":"LineString","coordinates":[[116.2789537,39.7482282],[116.2789524,39.7481696]]}},{"type":"Feature","properties":{"osm_id":926441763,"highway":"footway","name":"4号楼出口"},"geometry":{"type":"LineString","coordinates":[[116.2778847,39.7487207],[116.2778846,39.7487831]]}},{"type":"Feature","properties":{"osm_id":926441764,"highway":"footway","name":"5号楼出口"},"geometry":{"type":"LineString","coordinates":[[116.2769388,39.7491486],[116.2769423,39.7491938]]}},{"type":"Feature","properties":{"osm_id":926441765,"highway":"footway","name":"3号楼出口"},"geometry":{"type":"LineString","coordinates":[[116.2770869,39.7487186],[116.2770869,39.748777]]}},{"type":"Feature","properties":{"osm_id":926441766,"highway":"footway","name":"1号楼出口"},"geometry":{"type":"LineString","coordinates":[[116.2770972,39.7485058],[116.2770976,39.7485394],[116.277098,39.74858]]}},{"type":"Feature","properties":{"osm_id":926441767,"highway":"footway","name":"捷径01"},"geometry":{"type":"LineString","coordinates":[[116.2774977,39.7493685],[116.2775671,39.7493671],[116.2776425,39.7495729],[116.2781069,39.7496586]]}},{"type":"Feature","properties":{"osm_id":926441768,"footway":"sidewalk","highway":"footway","name":"9号楼出口"},"geometry":{"type":"LineString","coordinates":[[116.2770988,39.7501794],[116.2770988,39.7502023]]}},{"type":"Feature","properties":{"osm_id":926441769,"footway":"sidewalk","highway":"footway","name":"7号楼出口"},"geometry":{"type":"LineString","coordinates":[[116.2770934,39.7499441],[116.2770905,39.749857]]}},{"type":"Feature","properties":{"osm_id":926441770,"footway":"sidewalk","highway":"footway","name":"8号楼出口"},"geometry":{"type":"LineString","coordinates":[[116.2780455,39.7499406],[116.2780459,39.7498515]]}},{"type":"Feature","properties":{"osm_id":926441771,"footway":"sidewalk","highway":"footway","name":"10号楼出口"},"geometry":{"type":"LineString","coordinates":[[116.2780455,39.750175],[116.2780444,39.7502036]]}},{"type":"Feature","properties":{"osm_id":926441772,"footway":"sidewalk","highway":"footway","name":"操场北左出口"},"geometry":{"type":"LineString","coordinates":[[116.2789034,39.7498553],[116.2789021,39.7499406]]}},{"type":"Feature","properties":{"osm_id":984230599,"highway":"service"},"geometry":{"type":"LineString","coordinates":[[116.2843476,39.7469239],[116.2843501,39.7455934],[116.2843498,39.7455044],[116.2843492,39.7453525],[116.2843461,39.7444804],[116.2843446,39.7440544],[116.2843255,39.7440049],[116.2842487,39.7439958],[116.2823987,39.7439924]]}},{"type":"Feature","properties":{"osm_id":1154472618,"highway":"service","oneway":"yes"},"geometry":{"type":"LineString","coordinates":[[116.2801062,39.7512581],[116.2801676,39.7512285],[116.2802531,39.7512138],[116.2803399,39.7512119],[116.2803986,39.7512236],[116.2804576,39.7512423]]}}]}