{"type":"FeatureCollection","name":"BUCEA_Daxing_Campus_Boundary_OSM","source":"OpenStreetMap","license":"ODbL 1.0","osm_way_id":546474045,"features":[{"type":"Feature","properties":{"osm_id":546474045,"amenity":"university","name":"北京建筑大学大兴校区","name:en":"Beijing University of Civil Engineering and Architecture","name:zh":"北京建筑大学大兴校区"},"geometry":{"type":"Polygon","coordinates":[[[116.275633,39.7509767],[116.2829557,39.7515051],[116.2830256,39.7510581],[116.2831783,39.7502358],[116.2833407,39.7502335],[116.283389,39.749191],[116.2830748,39.7491814],[116.283137,39.7479707],[116.2832494,39.7479741],[116.2832816,39.7470233],[116.2846659,39.7470386],[116.2846957,39.7469103],[116.2847103,39.7439427],[116.2847223,39.7427892],[116.2816621,39.7428139],[116.277904,39.7428442],[116.2776927,39.7435123],[116.275633,39.7509767]]]}}]}