{"type":"FeatureCollection","name":"BUCEA_OSM_Buildings","source":"OpenStreetMap official Map API","license":"ODbL 1.0","campus_osm_way_id":546474045,"features":[{"type":"Feature","properties":{"osm_id":359504514,"building":"dormitory","name":"5号楼"},"geometry":{"type":"Polygon","coordinates":[[[116.2764212,39.7491913],[116.27642,39.7493432],[116.2773523,39.7493475],[116.2773535,39.7491957],[116.2769423,39.7491938],[116.2764212,39.7491913]]]}},{"type":"Feature","properties":{"osm_id":546473921,"amenity":"library","building":"yes","name":"北京建筑大学大兴校区图书馆","name:zh":"北京建筑大学大兴校区图书馆","opening_hours":"PH,Mo-Su 07:00-22:30","wheelchair":"yes"},"geometry":{"type":"Polygon","coordinates":[[[116.2810413,39.7450235],[116.2818007,39.7450198],[116.2818027,39.7448935],[116.2818071,39.7444223],[116.2816421,39.7444224],[116.2811592,39.7444226],[116.2810442,39.7444223],[116.2810426,39.7446688],[116.2810413,39.7450235]]]}},{"type":"Feature","properties":{"osm_id":546473922,"building":"yes","name":"测绘与城市空间信息学院","name:zh":"测绘与城市空间信息学院"},"geometry":{"type":"Polygon","coordinates":[[[116.2825804,39.7443678],[116.2838865,39.7443592],[116.2838823,39.7441869],[116.2825789,39.7441977],[116.2825804,39.7443678]]]}},{"type":"Feature","properties":{"osm_id":610558995,"building":"yes","name":"机电学院","name:zh":"机电学院"},"geometry":{"type":"Polygon","coordinates":[[[116.2825343,39.746627],[116.2836206,39.7466311],[116.2836206,39.7464001],[116.2825772,39.7464125],[116.2825799,39.7464372],[116.2825289,39.7464455],[116.2825343,39.746627]]]}},{"type":"Feature","properties":{"osm_id":610558996,"building":"yes","name":"工程实践创新中心","name:zh":"工程实践创新中心"},"geometry":{"type":"Polygon","coordinates":[[[116.2838459,39.7464929],[116.2841007,39.7464888],[116.2841007,39.7464331],[116.2841463,39.7464331],[116.2841409,39.7459547],[116.2840793,39.745965],[116.2840739,39.7456989],[116.2838459,39.745701],[116.2838459,39.7464929]]]}},{"type":"Feature","properties":{"osm_id":610558997,"building":"yes","building:levels":"5","name":"电气与信息工程学院","name:zh":"电气与信息工程学院"},"geometry":{"type":"Polygon","coordinates":[[[116.2825458,39.7458804],[116.2825427,39.7456724],[116.2836137,39.7456629],[116.2836169,39.745876],[116.2829148,39.7458822],[116.2829176,39.7460712],[116.2826017,39.746074],[116.2825988,39.7458799],[116.2825458,39.7458804]]]}},{"type":"Feature","properties":{"osm_id":610559005,"building":"dormitory","name":"2号楼"},"geometry":{"type":"Polygon","coordinates":[[[116.2775505,39.7485038],[116.2778859,39.7485051],[116.2784299,39.7485073],[116.2784309,39.7483631],[116.2775514,39.7483598],[116.2775505,39.7485038]]]}},{"type":"Feature","properties":{"osm_id":610559007,"building":"dormitory","name":"1号楼"},"geometry":{"type":"Polygon","coordinates":[[[116.2765805,39.7485072],[116.2770972,39.7485058],[116.2773502,39.7485022],[116.2773486,39.7483577],[116.276579,39.7483628],[116.2765805,39.7485072]]]}},{"type":"Feature","properties":{"osm_id":610559009,"building":"dormitory","name":"4号楼"},"geometry":{"type":"Polygon","coordinates":[[[116.2775387,39.7489294],[116.2784319,39.7489295],[116.2784319,39.748783],[116.2778846,39.7487831],[116.2775387,39.7487831],[116.2775387,39.7489294]]]}},{"type":"Feature","properties":{"osm_id":610559011,"building":"dormitory","name":"3号楼"},"geometry":{"type":"Polygon","coordinates":[[[116.2764568,39.7489248],[116.2773387,39.7489264],[116.2773391,39.7487775],[116.2770869,39.748777],[116.2764573,39.7487758],[116.2764568,39.7489248]]]}},{"type":"Feature","properties":{"osm_id":610559012,"building":"dormitory","name":"8号楼"},"geometry":{"type":"Polygon","coordinates":[[[116.2775463,39.74986],[116.2780459,39.7498515],[116.2784312,39.749845],[116.2784266,39.749686],[116.2775417,39.7497011],[116.2775463,39.74986]]]}},{"type":"Feature","properties":{"osm_id":610559014,"building":"dormitory","name":"10号楼"},"geometry":{"type":"Polygon","coordinates":[[[116.2775518,39.7503712],[116.2783881,39.7503565],[116.2783992,39.7503563],[116.2783944,39.7501974],[116.2780444,39.7502036],[116.277547,39.7502123],[116.2775518,39.7503712]]]}},{"type":"Feature","properties":{"osm_id":610559015,"building":"dormitory","name":"7号楼"},"geometry":{"type":"Polygon","coordinates":[[[116.2765441,39.7498591],[116.2770905,39.749857],[116.2773944,39.7498558],[116.2773933,39.7496929],[116.276543,39.7496963],[116.2765441,39.7498591]]]}},{"type":"Feature","properties":{"osm_id":610559017,"building":"dormitory","name":"9号楼"},"geometry":{"type":"Polygon","coordinates":[[[116.2765396,39.7503658],[116.2773925,39.7503576],[116.2773979,39.7502008],[116.2770988,39.7502023],[116.2765449,39.750205],[116.2765396,39.7503658]]]}},{"type":"Feature","properties":{"osm_id":782078322,"amenity":"community_centre","building":"yes","name":"大学生活动中心"},"geometry":{"type":"Polygon","coordinates":[[[116.2777053,39.7495646],[116.2783033,39.749564],[116.2783025,39.7491132],[116.2777045,39.7491139],[116.2777053,39.7495646]]]}},{"type":"Feature","properties":{"osm_id":782078325,"building":"stadium","name":"综合体育馆"},"geometry":{"type":"Polygon","coordinates":[[[116.2810303,39.7506795],[116.2811809,39.7506711],[116.2813271,39.7506392],[116.2814537,39.7505922],[116.2815498,39.7505268],[116.2816,39.7504664],[116.2816196,39.750406],[116.2816218,39.7503456],[116.2816109,39.7502952],[116.2815629,39.7502298],[116.2814996,39.7501761],[116.2813708,39.7501291],[116.2811695,39.7501045],[116.2809878,39.7501176],[116.2808393,39.7501478],[116.2807204,39.7501962],[116.2806516,39.7502519],[116.2806098,39.7502935],[116.2805836,39.750342],[116.2805714,39.7504022],[116.280572,39.7504429],[116.2805873,39.7504865],[116.2806288,39.7505385],[116.2806942,39.750599],[116.2807772,39.7506392],[116.2808819,39.7506644],[116.2810303,39.7506795]]]}},{"type":"Feature","properties":{"osm_id":782078334,"building":"yes","name":"基础教学楼A"},"geometry":{"type":"Polygon","coordinates":[[[116.2776028,39.7473261],[116.2776021,39.7470507],[116.2794217,39.7470606],[116.2794144,39.7473254],[116.2776028,39.7473261]]]}},{"type":"Feature","properties":{"osm_id":782078335,"building":"yes","name":"基础教学楼B"},"geometry":{"type":"Polygon","coordinates":[[[116.2799523,39.7480254],[116.2799571,39.7475274],[116.2795775,39.7475253],[116.2795728,39.7480233],[116.2799523,39.7480254]]]}},{"type":"Feature","properties":{"osm_id":782078336,"building":"yes","name":"基础教学楼C"},"geometry":{"type":"Polygon","coordinates":[[[116.2794502,39.747772],[116.279449,39.7480131],[116.2781933,39.7480096],[116.2781945,39.7477686],[116.2794502,39.747772]]]}},{"type":"Feature","properties":{"osm_id":782078337,"building":"yes","name":"基础教学楼D"},"geometry":{"type":"Polygon","coordinates":[[[116.2780013,39.7475532],[116.2780013,39.7480004],[116.2776312,39.7480004],[116.2776311,39.7475532],[116.2780013,39.7475532]]]}},{"type":"Feature","properties":{"osm_id":782083609,"amenity":"restaurant","building":"yes","cuisine":"burger;coffee_shop;chinese","name":"和园"},"geometry":{"type":"Polygon","coordinates":[[[116.2774115,39.7475217],[116.2774162,39.7478804],[116.2772531,39.7478816],[116.2772543,39.7479707],[116.2767761,39.7479743],[116.2767741,39.7478219],[116.2768273,39.7478215],[116.2768234,39.7475263],[116.2774115,39.7475217]]]}},{"type":"Feature","properties":{"osm_id":782083611,"building":"yes","name":"行政楼"},"geometry":{"type":"Polygon","coordinates":[[[116.2799673,39.7451557],[116.2799666,39.7453],[116.2798912,39.7452998],[116.2798896,39.7456256],[116.2799487,39.7456258],[116.279948,39.7457703],[116.279494,39.745769],[116.2794947,39.7456302],[116.279597,39.7456305],[116.2795988,39.7452925],[116.279508,39.7452922],[116.2795087,39.7451542],[116.2799673,39.7451557]]]}},{"type":"Feature","properties":{"osm_id":782083612,"building":"yes","name":"大型多功能振动台阵实验室","name:en":"multi-functional shaking tables laboratory"},"geometry":{"type":"Polygon","coordinates":[[[116.284263,39.7445529],[116.284263,39.7451631],[116.2838631,39.7451631],[116.2838631,39.7445529],[116.284263,39.7445529]]]}},{"type":"Feature","properties":{"osm_id":782083614,"amenity":"restaurant","building":"yes","name":"臻园"},"geometry":{"type":"Polygon","coordinates":[[[116.2822839,39.7478255],[116.2822935,39.7471506],[116.2818609,39.7471469],[116.2818512,39.7478219],[116.2822839,39.7478255]]]}},{"type":"Feature","properties":{"osm_id":782083615,"amenity":"clinic","building":"yes","healthcare":"clinic","name":"医务楼"},"geometry":{"type":"Polygon","coordinates":[[[116.2829572,39.7472492],[116.2829591,39.7470835],[116.2824926,39.7470802],[116.2824907,39.7472459],[116.2829572,39.7472492]]]}},{"type":"Feature","properties":{"osm_id":782083616,"building":"yes"},"geometry":{"type":"Polygon","coordinates":[[[116.2829755,39.7475324],[116.2829829,39.7474004],[116.2824799,39.7473888],[116.2824831,39.7475354],[116.2829755,39.7475324]]]}},{"type":"Feature","properties":{"osm_id":782083617,"building":"yes","club":"sport","name":"气膜体育馆"},"geometry":{"type":"Polygon","coordinates":[[[116.2787835,39.7449229],[116.2787843,39.7445592],[116.2776835,39.7445578],[116.2776827,39.7449214],[116.2787835,39.7449229]]]}},{"type":"Feature","properties":{"osm_id":782083619,"building":"yes","name":"文法学院"},"geometry":{"type":"Polygon","coordinates":[[[116.2798516,39.7460359],[116.2792031,39.7460373],[116.2792037,39.7462066],[116.2794971,39.746206],[116.279718,39.7462055],[116.2798522,39.7462052],[116.2798516,39.7460359]]]}},{"type":"Feature","properties":{"osm_id":782083620,"building":"yes"},"geometry":{"type":"Polygon","coordinates":[[[116.2797102,39.7466552],[116.279718,39.7462055],[116.2794971,39.746206],[116.2794925,39.7466506],[116.2797102,39.7466552]]]}},{"type":"Feature","properties":{"osm_id":782083622,"building":"yes"},"geometry":{"type":"Polygon","coordinates":[[[116.2783,39.7466239],[116.2785347,39.746575],[116.2784185,39.7462861],[116.2782035,39.7463398],[116.2782352,39.7463961],[116.278235,39.7465685],[116.278271,39.7465716],[116.2783,39.7466239]]]}},{"type":"Feature","properties":{"osm_id":782083625,"building":"yes"},"geometry":{"type":"Polygon","coordinates":[[[116.2777289,39.7458381],[116.2777372,39.7453063],[116.277431,39.7453035],[116.2774227,39.7458353],[116.2777289,39.7458381]]]}},{"type":"Feature","properties":{"osm_id":782872320,"building":"yes"},"geometry":{"type":"Polygon","coordinates":[[[116.2784007,39.7451901],[116.2788353,39.745188],[116.2788347,39.7451103],[116.2784001,39.7451124],[116.2784007,39.7451901]]]}},{"type":"Feature","properties":{"osm_id":782872321,"building":"yes"},"geometry":{"type":"Polygon","coordinates":[[[116.2787364,39.7453864],[116.2788385,39.7453848],[116.2788342,39.7452161],[116.2787321,39.7452177],[116.2787364,39.7453864]]]}},{"type":"Feature","properties":{"osm_id":782872322,"building":"yes"},"geometry":{"type":"Polygon","coordinates":[[[116.2784986,39.7454004],[116.2784968,39.74532],[116.2786974,39.7453174],[116.2786991,39.7453979],[116.2784986,39.7454004]]]}},{"type":"Feature","properties":{"osm_id":782872323,"building":"yes"},"geometry":{"type":"Polygon","coordinates":[[[116.278837,39.7454737],[116.2784033,39.7454729],[116.2784031,39.7455321],[116.2788368,39.745533],[116.278837,39.7454737]]]}},{"type":"Feature","properties":{"osm_id":782872324,"building":"yes"},"geometry":{"type":"Polygon","coordinates":[[[116.2783848,39.7453444],[116.2784693,39.7453434],[116.2784667,39.7452077],[116.2783822,39.7452086],[116.2783848,39.7453444]]]}},{"type":"Feature","properties":{"osm_id":782872342,"building":"yes","name":"锅炉房"},"geometry":{"type":"Polygon","coordinates":[[[116.2829836,39.7480472],[116.2829855,39.7476628],[116.2827042,39.747662],[116.2827023,39.7480464],[116.2829836,39.7480472]]]}},{"type":"Feature","properties":{"osm_id":782872350,"building":"yes","name":"体育楼"},"geometry":{"type":"Polygon","coordinates":[[[116.2788699,39.7498552],[116.278807,39.7498542],[116.2787463,39.7498533],[116.2787531,39.7495062],[116.2786183,39.7495036],[116.2786183,39.748615],[116.2787362,39.7486098],[116.2787295,39.7482626],[116.2788105,39.7482612],[116.2788755,39.74826],[116.2788699,39.7498552]]]}},{"type":"Feature","properties":{"osm_id":782872357,"building":"yes","name":"小鸟巢"},"geometry":{"type":"Polygon","coordinates":[[[116.279665,39.7473965],[116.2797167,39.7474108],[116.2797716,39.7474109],[116.2798233,39.7473967],[116.2798657,39.74737],[116.2798924,39.7473368],[116.2799042,39.7472988],[116.2799,39.7472599],[116.2798801,39.747224],[116.2798466,39.7471946],[116.2798029,39.7471748],[116.2797532,39.7471665],[116.2797027,39.7471706],[116.2796564,39.7471866],[116.279619,39.747213],[116.2795927,39.74725],[116.2795843,39.7472918],[116.2795947,39.7473332],[116.2796227,39.7473695],[116.279665,39.7473965]]]}},{"type":"Feature","properties":{"osm_id":782872359,"building":"yes"},"geometry":{"type":"Polygon","coordinates":[[[116.2833205,39.7496807],[116.2833263,39.7494719],[116.2832549,39.7494707],[116.2832609,39.7492596],[116.2830806,39.7492566],[116.2830689,39.7496765],[116.2833205,39.7496807]]]}},{"type":"Feature","properties":{"osm_id":782872360,"building":"yes"},"geometry":{"type":"Polygon","coordinates":[[[116.2832905,39.749888],[116.2832901,39.7497915],[116.2832012,39.7497902],[116.2830934,39.7497919],[116.2830938,39.7498885],[116.2832905,39.749888]]]}},{"type":"Feature","properties":{"osm_id":782872363,"building":"yes"},"geometry":{"type":"Polygon","coordinates":[[[116.2815543,39.7429574],[116.2817579,39.742958],[116.2817575,39.7430325],[116.2815539,39.7430319],[116.2815543,39.7429574]]]}},{"type":"Feature","properties":{"osm_id":782872364,"building":"yes"},"geometry":{"type":"Polygon","coordinates":[[[116.281042,39.7429495],[116.2812356,39.7429512],[116.2812333,39.7430291],[116.2810443,39.7430291],[116.281042,39.7429495]]]}},{"type":"Feature","properties":{"osm_id":782872368,"building":"yes","name":"4号楼"},"geometry":{"type":"Polygon","coordinates":[[[116.2828282,39.7501949],[116.2828293,39.750096],[116.2828052,39.7500959],[116.2828061,39.750024],[116.2826113,39.7500227],[116.2826105,39.7500882],[116.2824979,39.7500874],[116.2824986,39.7500221],[116.2823072,39.7500208],[116.2823065,39.7500862],[116.2821703,39.7500853],[116.282171,39.7500226],[116.2820354,39.7500217],[116.2820334,39.7501893],[116.2828282,39.7501949]]]}},{"type":"Feature","properties":{"osm_id":782872369,"building":"yes","name":"3号楼"},"geometry":{"type":"Polygon","coordinates":[[[116.282833,39.7506846],[116.2828337,39.7505991],[116.2827909,39.7505989],[116.2827916,39.7505145],[116.2825947,39.7505135],[116.282594,39.7505997],[116.2824868,39.7505992],[116.2824875,39.7505148],[116.2823053,39.7505139],[116.2823046,39.7505897],[116.2821882,39.7505892],[116.2821888,39.7505139],[116.282014,39.750513],[116.2820127,39.7506807],[116.282833,39.7506846]]]}},{"type":"Feature","properties":{"osm_id":782872371,"building":"yes","name":"2号楼"},"geometry":{"type":"Polygon","coordinates":[[[116.2828661,39.7511815],[116.2828748,39.7510897],[116.282853,39.7510885],[116.2828571,39.7510457],[116.2827135,39.7510377],[116.2827101,39.7510733],[116.2825679,39.7510653],[116.2825713,39.751029],[116.2824322,39.7510213],[116.2824284,39.751062],[116.2822726,39.7510533],[116.2822762,39.7510147],[116.2821261,39.7510063],[116.2821135,39.7511395],[116.2828661,39.7511815]]]}},{"type":"Feature","properties":{"osm_id":782872372,"building":"yes","name":"1号楼"},"geometry":{"type":"Polygon","coordinates":[[[116.2818972,39.7511144],[116.2819057,39.7510322],[116.2818768,39.7510305],[116.2818821,39.7509788],[116.2817322,39.7509697],[116.2817282,39.7510084],[116.2816295,39.7510024],[116.2816343,39.7509553],[116.2815117,39.7509479],[116.2815074,39.7509892],[116.2813599,39.7509802],[116.2813637,39.7509431],[116.2812201,39.7509344],[116.2812059,39.7510723],[116.2818972,39.7511144]]]}},{"type":"Feature","properties":{"osm_id":782900098,"building":"yes"},"geometry":{"type":"Polygon","coordinates":[[[116.2816344,39.7465191],[116.2817055,39.7465181],[116.2817061,39.7465466],[116.2817117,39.7465477],[116.2819275,39.7465436],[116.2819271,39.7465238],[116.2820193,39.7465224],[116.2820182,39.7464584],[116.2819325,39.7464591],[116.281932,39.7464399],[116.281713,39.7464428],[116.2817134,39.7464628],[116.2816331,39.7464639],[116.2816344,39.7465191]]]}},{"type":"Feature","properties":{"osm_id":782900099,"building":"yes"},"geometry":{"type":"Polygon","coordinates":[[[116.2820193,39.7465224],[116.2822083,39.7465205],[116.2822072,39.7464565],[116.2820182,39.7464584],[116.2820193,39.7465224]]]}},{"type":"Feature","properties":{"osm_id":782900100,"building":"yes"},"geometry":{"type":"Polygon","coordinates":[[[116.2817129,39.7466513],[116.2817117,39.7465477],[116.2816369,39.7465482],[116.2816381,39.7466518],[116.2817129,39.7466513]]]}},{"type":"Feature","properties":{"osm_id":782900101,"building":"yes"},"geometry":{"type":"Polygon","coordinates":[[[116.2819321,39.7466464],[116.2820202,39.7466457],[116.28202,39.7465526],[116.2819313,39.7465524],[116.2819321,39.7466464]]]}},{"type":"Feature","properties":{"osm_id":782900102,"building":"yes"},"geometry":{"type":"Polygon","coordinates":[[[116.2820202,39.7466457],[116.2820648,39.7466456],[116.2820646,39.7465525],[116.28202,39.7465526],[116.2820202,39.7466457]]]}},{"type":"Feature","properties":{"osm_id":782900103,"building":"yes"},"geometry":{"type":"Polygon","coordinates":[[[116.2821394,39.746646],[116.2821404,39.7465534],[116.2822046,39.7465538],[116.2822036,39.7466463],[116.2821394,39.746646]]]}},{"type":"Feature","properties":{"osm_id":782900104,"building":"yes"},"geometry":{"type":"Polygon","coordinates":[[[116.2816379,39.7466818],[116.2817085,39.7466817],[116.2817085,39.7466577],[116.2819226,39.7466573],[116.2819227,39.7466783],[116.2820148,39.7466785],[116.2820151,39.7467409],[116.281638,39.7467418],[116.2816379,39.7466818]]]}},{"type":"Feature","properties":{"osm_id":782900105,"building":"yes"},"geometry":{"type":"Polygon","coordinates":[[[116.2820151,39.7467409],[116.2821983,39.7467403],[116.282198,39.7466779],[116.2820148,39.7466785],[116.2820151,39.7467409]]]}},{"type":"Feature","properties":{"osm_id":782900106,"building":"yes"},"geometry":{"type":"Polygon","coordinates":[[[116.2820183,39.7464359],[116.2819305,39.7464358],[116.2819313,39.7463324],[116.2820185,39.7463327],[116.2820183,39.7464359]]]}},{"type":"Feature","properties":{"osm_id":782900107,"building":"yes"},"geometry":{"type":"Polygon","coordinates":[[[116.2820183,39.7464359],[116.2820667,39.7464359],[116.2820669,39.7463328],[116.2820185,39.7463327],[116.2820183,39.7464359]]]}},{"type":"Feature","properties":{"osm_id":782900108,"building":"office"},"geometry":{"type":"Polygon","coordinates":[[[116.2821402,39.7464328],[116.2822059,39.7464324],[116.2822044,39.7462777],[116.2821387,39.7462781],[116.2821402,39.7464328]]]}},{"type":"Feature","properties":{"osm_id":782900109,"building":"yes"},"geometry":{"type":"Polygon","coordinates":[[[116.2816323,39.7464314],[116.2817271,39.7464311],[116.2817266,39.7463325],[116.2816319,39.7463328],[116.2816323,39.7464314]]]}},{"type":"Feature","properties":{"osm_id":783219124,"building":"yes"},"geometry":{"type":"Polygon","coordinates":[[[116.2771558,39.7466684],[116.2773499,39.7466646],[116.2773439,39.7464833],[116.2771499,39.7464871],[116.2771558,39.7466684]]]}},{"type":"Feature","properties":{"osm_id":783219125,"building":"yes"},"geometry":{"type":"Polygon","coordinates":[[[116.2771549,39.7463839],[116.2773359,39.7463818],[116.2773342,39.7462928],[116.2771532,39.7462949],[116.2771549,39.7463839]]]}}]}