{"type":"FeatureCollection","name":"BUCEA_OSM_Areas","source":"OpenStreetMap official Map API","license":"ODbL 1.0","campus_osm_way_id":546474045,"features":[{"type":"Feature","properties":{"osm_id":359504404,"leisure":"pitch","sport":"basketball"},"geometry":{"type":"Polygon","coordinates":[[[116.2784215,39.7506988],[116.2783823,39.7510147],[116.2798137,39.7511195],[116.2798528,39.7508038],[116.2784215,39.7506988]]]}},{"type":"Feature","properties":{"osm_id":487092780,"landuse":"industrial","name":"项目用地"},"geometry":{"type":"Polygon","coordinates":[[[116.2837479,39.7439349],[116.2842308,39.743941],[116.284305,39.7438794],[116.2842251,39.743816],[116.2842292,39.7431871],[116.2837036,39.7431842],[116.2832566,39.7433289],[116.283253,39.7437997],[116.283691,39.7438014],[116.2837479,39.7439349]]]}},{"type":"Feature","properties":{"osm_id":546473919,"leisure":"pitch","lit":"yes","sport":"soccer","wheelchair":"yes"},"geometry":{"type":"Polygon","coordinates":[[[116.2788699,39.7498552],[116.2789034,39.7498553],[116.2802068,39.749858],[116.2802125,39.7482307],[116.2789537,39.7482282],[116.2788756,39.748228],[116.2788755,39.74826],[116.2788699,39.7498552]]]}},{"type":"Feature","properties":{"osm_id":782872319,"leisure":"garden","name":"建苑"},"geometry":{"type":"Polygon","coordinates":[[[116.2791007,39.7449541],[116.2791513,39.7449541],[116.2792214,39.7448643],[116.2798562,39.7448613],[116.2799341,39.7449122],[116.2801327,39.7449152],[116.2801638,39.7431215],[116.2782011,39.7430496],[116.2780725,39.7430856],[116.2780043,39.7431394],[116.2776513,39.7443997],[116.2785321,39.7443941],[116.278536,39.7445319],[116.2788242,39.7445259],[116.2788125,39.7449541],[116.2791007,39.7449541]]]}},{"type":"Feature","properties":{"osm_id":782872325,"leisure":"garden"},"geometry":{"type":"Polygon","coordinates":[[[116.2778268,39.7450415],[116.2783125,39.7450391],[116.2783169,39.7455518],[116.2790963,39.7455479],[116.2790991,39.745882],[116.2778339,39.7458882],[116.2778268,39.7450415]]]}},{"type":"Feature","properties":{"osm_id":782872326,"leisure":"garden"},"geometry":{"type":"Polygon","coordinates":[[[116.2801698,39.7507327],[116.2802252,39.7506946],[116.2802223,39.7499975],[116.2786713,39.7499863],[116.278616,39.7500132],[116.278616,39.7506184],[116.2801698,39.7507327]]]}},{"type":"Feature","properties":{"osm_id":782872349,"landuse":"recreation_ground"},"geometry":{"type":"Polygon","coordinates":[[[116.2759986,39.7505061],[116.27644,39.750576],[116.2764872,39.7504698],[116.2764939,39.749589],[116.2764434,39.7495268],[116.2762513,39.7495268],[116.2759986,39.7505061]]]}},{"type":"Feature","properties":{"osm_id":782872374,"leisure":"pitch","sport":"tennis"},"geometry":{"type":"Polygon","coordinates":[[[116.277572,39.7509461],[116.2783823,39.7510147],[116.2784215,39.7506988],[116.277578,39.7506364],[116.277572,39.7509461]]]}},{"type":"Feature","properties":{"osm_id":783219126,"leisure":"garden"},"geometry":{"type":"Polygon","coordinates":[[[116.2804762,39.7439608],[116.2810945,39.7439638],[116.2810961,39.7437742],[116.2811453,39.7437745],[116.2811475,39.7431581],[116.2805501,39.7431527],[116.2804824,39.7432214],[116.2804762,39.7439608]]]}},{"type":"Feature","properties":{"osm_id":783219127,"leisure":"garden"},"geometry":{"type":"Polygon","coordinates":[[[116.2817297,39.743956],[116.2817321,39.7437733],[116.2816965,39.743773],[116.2817049,39.7431519],[116.2822793,39.7431565],[116.2823512,39.7431967],[116.2823415,39.7439605],[116.2817297,39.743956]]]}},{"type":"Feature","properties":{"osm_id":783219128,"landuse":"grass"},"geometry":{"type":"Polygon","coordinates":[[[116.2811453,39.7437745],[116.2816965,39.743773],[116.2817049,39.7431519],[116.2815242,39.7431565],[116.2815667,39.7432695],[116.2813511,39.7433323],[116.2812726,39.743159],[116.2811475,39.7431581],[116.2811453,39.7437745]]]}},{"type":"Feature","properties":{"osm_id":783219129,"landuse":"grass"},"geometry":{"type":"Polygon","coordinates":[[[116.280529,39.7440301],[116.2810873,39.7440334],[116.2810853,39.7442352],[116.2811606,39.7442357],[116.2811601,39.7442888],[116.2808518,39.744287],[116.2808437,39.7451148],[116.2808729,39.745115],[116.2809083,39.7451152],[116.2809688,39.7452841],[116.2808516,39.7453089],[116.2807557,39.7453292],[116.2806398,39.7453307],[116.2804638,39.745333],[116.2804572,39.7440881],[116.280529,39.7440301]]]}},{"type":"Feature","properties":{"osm_id":783219130,"landuse":"grass"},"geometry":{"type":"Polygon","coordinates":[[[116.2817387,39.7440274],[116.2817346,39.744233],[116.2816477,39.744232],[116.2816466,39.7442899],[116.2819796,39.7442937],[116.2819627,39.7451589],[116.2819309,39.7451585],[116.281897,39.7451581],[116.2818976,39.7451264],[116.2809083,39.7451152],[116.2809688,39.7452841],[116.2810587,39.7453203],[116.2811141,39.7453248],[116.2812541,39.7452867],[116.2813299,39.7452822],[116.2813853,39.7452957],[116.2814698,39.7453405],[116.2815164,39.7453495],[116.2817438,39.7452889],[116.2818313,39.7452934],[116.2818925,39.7453338],[116.2818896,39.7453696],[116.2819071,39.7453943],[116.2819742,39.7454369],[116.2820325,39.7454526],[116.2820412,39.7454795],[116.2820383,39.7455265],[116.2820412,39.7455691],[116.2820472,39.7455798],[116.2821008,39.7455795],[116.2820953,39.7453417],[116.2821707,39.7453421],[116.2823611,39.745343],[116.2823685,39.7444514],[116.2823269,39.7444119],[116.2822193,39.7444119],[116.2821948,39.7444514],[116.2821948,39.7446057],[116.2822755,39.7446057],[116.2822755,39.7448652],[116.2821679,39.7448652],[116.2821679,39.7447166],[116.2821068,39.7447166],[116.2821068,39.7444571],[116.2821312,39.7443819],[116.2821997,39.7443536],[116.2822976,39.7443536],[116.2823465,39.7443235],[116.282344,39.7440809],[116.2822976,39.7440339],[116.2817387,39.7440274]]]}},{"type":"Feature","properties":{"osm_id":783226611,"leisure":"garden"},"geometry":{"type":"Polygon","coordinates":[[[116.2807613,39.745578],[116.28069,39.7455789],[116.2804694,39.7455819],[116.2804715,39.7467785],[116.2804715,39.7467937],[116.2805107,39.7468515],[116.2805728,39.7468867],[116.2806167,39.7468867],[116.2808564,39.7468867],[116.2815792,39.7468867],[116.2815694,39.7461129],[116.2821184,39.7461179],[116.2821935,39.74604],[116.2822622,39.7460149],[116.282321,39.7459923],[116.2823667,39.7459496],[116.2823682,39.7455781],[116.282176,39.7455791],[116.2821008,39.7455795],[116.2820472,39.7455798],[116.2821345,39.745735],[116.2821258,39.7457821],[116.2821024,39.7458045],[116.2821345,39.7458583],[116.2821316,39.7458919],[116.2820995,39.7459143],[116.2818954,39.7459794],[116.2818138,39.7460062],[116.2817613,39.7460018],[116.2817234,39.7459973],[116.2816301,39.746004],[116.2815981,39.7459771],[116.2815514,39.7459749],[116.2814844,39.745995],[116.2814523,39.7460107],[116.2814173,39.7460533],[116.2814202,39.7461766],[116.2814523,39.7462326],[116.2814669,39.7462708],[116.2814436,39.7463111],[116.2814436,39.7463627],[116.2814581,39.7464053],[116.2814698,39.7464523],[116.2814319,39.7465487],[116.2814202,39.7465711],[116.2814261,39.7465913],[116.2814049,39.7466147],[116.2813526,39.7466315],[116.2812631,39.7466416],[116.2811083,39.7466384],[116.2810383,39.7466653],[116.2808984,39.7466787],[116.2807351,39.746542],[116.2806914,39.7464904],[116.2806535,39.7463806],[116.2806622,39.7463178],[116.2808343,39.7462102],[116.2808174,39.746147],[116.2808261,39.7461222],[116.2808401,39.7460825],[116.2807759,39.746013],[116.2807322,39.7459412],[116.2807322,39.7458695],[116.2808051,39.7457552],[116.2808168,39.7457014],[116.2807934,39.7456252],[116.2807749,39.745598],[116.2807613,39.745578]]]}},{"type":"Feature","properties":{"osm_id":783226625,"landuse":"grass"},"geometry":{"type":"Polygon","coordinates":[[[116.2837479,39.7439349],[116.2824793,39.743928],[116.2824793,39.7430319],[116.2818056,39.7430315],[116.2818023,39.7429536],[116.2816653,39.7429495],[116.2816621,39.7428139],[116.2847223,39.7427892],[116.2847103,39.7439427],[116.28442,39.7439417],[116.2842308,39.743941],[116.284305,39.7438794],[116.2842251,39.743816],[116.2842292,39.7431871],[116.2837036,39.7431842],[116.2832566,39.7433289],[116.283253,39.7437997],[116.283691,39.7438014],[116.2837479,39.7439349]]]}},{"type":"Feature","properties":{"osm_id":783261667,"landuse":"grass"},"geometry":{"type":"Polygon","coordinates":[[[116.280761,39.7470706],[116.2808286,39.7470792],[116.2808908,39.747101],[116.2809435,39.7471347],[116.2809828,39.7471778],[116.2810064,39.7472283],[116.2810116,39.7472819],[116.280998,39.7473346],[116.2809599,39.7473897],[116.2809015,39.747433],[116.2808285,39.7474604],[116.2807482,39.747469],[116.2806694,39.7474584],[116.2804021,39.7474545],[116.280392,39.7480596],[116.2804576,39.748112],[116.2816128,39.7481139],[116.2816582,39.7480713],[116.2816759,39.7470085],[116.2807587,39.7470007],[116.280761,39.7470706]]]}},{"type":"Feature","properties":{"osm_id":783261668,"landuse":"grass"},"geometry":{"type":"Polygon","coordinates":[[[116.2804021,39.7474545],[116.2806694,39.7474584],[116.2805986,39.7474299],[116.2805425,39.7473861],[116.2805064,39.7473313],[116.2804937,39.7472706],[116.2805067,39.7472076],[116.2805448,39.747151],[116.2806042,39.7471066],[116.2806788,39.7470788],[116.280761,39.7470706],[116.2807587,39.7470007],[116.2804777,39.7469968],[116.2804046,39.7470608],[116.2804021,39.7474545]]]}},{"type":"Feature","properties":{"osm_id":783282458,"leisure":"garden"},"geometry":{"type":"Polygon","coordinates":[[[116.2811687,39.7462123],[116.2812524,39.7461973],[116.2812621,39.7461793],[116.2812621,39.7461643],[116.2813069,39.7461524],[116.2813147,39.7461329],[116.2813206,39.7460925],[116.2813245,39.7460497],[116.2813297,39.7460137],[116.2813922,39.7460077],[116.281413,39.7459637],[116.2814208,39.7459217],[116.2813922,39.7458697],[116.2813506,39.7458417],[116.2812933,39.7458217],[116.2811867,39.7458397],[116.2811477,39.7458257],[116.2811112,39.7458397],[116.2810982,39.7458937],[116.2810332,39.7459857],[116.2810462,39.7460157],[116.2810254,39.7460537],[116.2810549,39.746096],[116.2810618,39.7461237],[116.2810811,39.7461569],[116.2811161,39.7461763],[116.2811589,39.7461898],[116.2811687,39.7462123]]]}},{"type":"Feature","properties":{"osm_id":1429486717,"landuse":"construction","name":"学生宿舍11号楼"},"geometry":{"type":"Polygon","coordinates":[[[116.2803027,39.7499476],[116.2829927,39.7499376],[116.2830705,39.7481585],[116.2803113,39.7481555],[116.2803027,39.7499476]]]}}]}